{"fetched_at":"2026-03-30T13:17:50Z","count":15418,"tles":[{"name":"STARLINK-34615","line1":"1 66321U 25253C   26087.77336255  .00019707  00000+0  72349-3 0  9997","line2":"2 66321  43.0034 104.6623 0000945 277.6990  82.3754 15.27592529 23162","category":"Starlink"}]}