{
  "norad_id": 66321,
  "name": "STARLINK-34615",
  "history": [
    {
      "epoch": "2026-03-28T18:33:38.524320",
      "apogee_km": 483.660370172508,
      "perigee_km": 482.36278975306504,
      "latitude_deg": 6.496688994480124,
      "longitude_deg": 166.34280480002053,
      "semi_major_axis_km": 6861.148579962786,
      "eccentricity": 9.456e-05,
      "inclination_deg": 43.0034,
      "raan_deg": 104.6623,
      "arg_perigee_deg": 277.699,
      "mean_anomaly_deg": 82.3754,
      "mean_motion_rev_day": 15.27592529
    }
  ]
}